[{"OBJECT_NAME":"STARLINK-2019","OBJECT_ID":"2021-012X","EPOCH":"2026-03-09T22:00:01.999584","MEAN_MOTION":15.57979117,"ECCENTRICITY":0.00041465,"INCLINATION":53.0464,"RA_OF_ASC_NODE":301.7175,"ARG_OF_PERICENTER":110.3422,"MEAN_ANOMALY":110.359,"EPHEMERIS_TYPE":0,"CLASSIFICATION_TYPE":"U","NORAD_CAT_ID":47641,"ELEMENT_SET_NO":999,"REV_AT_EPOCH":591,"BSTAR":0.0015842101,"MEAN_MOTION_DOT":0.00122178,"MEAN_MOTION_DDOT":0},{"OBJECT_NAME":"JILIN-1 GAOFEN 3D28","OBJECT_ID":"2022-048C","EPOCH":"2026-03-09T22:23:52.171008","MEAN_MOTION":15.60004375,"ECCENTRICITY":0.00030881,"INCLINATION":97.5571,"RA_OF_ASC_NODE":175.2949,"ARG_OF_PERICENTER":82.8253,"MEAN_ANOMALY":277.3354,"EPHEMERIS_TYPE":0,"CLASSIFICATION_TYPE":"U","NORAD_CAT_ID":52445,"ELEMENT_SET_NO":999,"REV_AT_EPOCH":21397,"BSTAR":0.0010117511,"MEAN_MOTION_DOT":0.00082331,"MEAN_MOTION_DDOT":0}]
